NORAD_CAT_ID,OBJECT_NAME,OBJECT_TYPE,EPOCH,MEAN_MOTION,ECCENTRICITY,INCLINATION,RA_OF_ASC_NODE,ARG_OF_PERICENTER,MEAN_ANOMALY,BSTAR,MEAN_MOTION_DOT,MEAN_MOTION_DDOT,TLE_LINE0,TLE_LINE1,TLE_LINE2,SEMIMAJOR_AXIS,PERIOD,APOGEE,PERIGEE,DECAYED
53244.0,STARLINK-4125,PAYLOAD,2024-03-28 21:05:58,15.08828608,0.0001199,53.2161,155.1528,82.0887,278.0241,0.00048495,7.436e-05,0.0,0 STARLINK-4125,1 53244U 22086C   24088.87914829  .00007436  00000-0  48495-3 0  9999,2 53244  53.2161 155.1528 0001199  82.0887 278.0241 15.08828608 93932,6917.915,95.438,540.61,538.951,0.0
53244.0,STARLINK-4125,PAYLOAD,2024-03-29 11:24:26,15.08853381,0.0001145,53.2153,152.4756,74.1784,285.9335,0.0010877,0.00017071,0.0,0 STARLINK-4125,1 53244U 22086C   24089.47530680  .00017071  00000-0  10877-2 0  9993,2 53244  53.2153 152.4756 0001145  74.1784 285.9335 15.08853381 93527,6917.839,95.437,540.497,538.912,0.0
53244.0,STARLINK-4125,PAYLOAD,2024-03-29 20:56:45,15.08852735,0.0001078,53.2149,150.6911,80.1954,279.916,0.00063783,9.881e-05,0.0,0 STARLINK-4125,1 53244U 22086C   24089.87274564  .00009881  00000-0  63783-3 0  9998,2 53244  53.2149 150.6911 0001078  80.1954 279.9160 15.08852735 93583,6917.841,95.437,540.452,538.961,0.0
53244.0,STARLINK-4125,PAYLOAD,2024-03-30 11:15:13,15.08840053,0.0001242,53.2154,148.0177,93.3981,266.7154,8.9825e-05,1.142e-05,0.0,0 STARLINK-4125,1 53244U 22086C   24090.46890751  .00001142  00000-0  89825-4 0  9995,2 53244  53.2154 148.0177 0001242  93.3981 266.7154 15.08840053 93670,6917.88,95.438,540.604,538.886,0.0
53244.0,STARLINK-4125,PAYLOAD,2024-03-30 20:47:32,15.08844013,0.000122,53.2153,146.2311,81.7063,278.4068,0.00023397,3.438e-05,0.0,0 STARLINK-4125,1 53244U 22086C   24090.86634880  .00003438  00000-0  23397-3 0  9999,2 53244  53.2153 146.2311 0001220  81.7063 278.4068 15.08844013 94234,6917.868,95.437,540.577,538.889,0.0
53244.0,STARLINK-4125,PAYLOAD,2024-03-31 11:06:00,15.08846734,0.0001389,53.2157,143.5547,82.426,277.689,0.00021958,3.209e-05,0.0,0 STARLINK-4125,1 53244U 22086C   24091.46250825  .00003209  00000-0  21958-3 0  9996,2 53244  53.2157 143.5547 0001389  82.4260 277.6890 15.08846734 94328,6917.86,95.437,540.686,538.764,0.0
53244.0,STARLINK-4125,PAYLOAD,2024-03-31 20:38:19,15.08845661,0.000135,53.2158,141.7702,81.6298,278.4847,0.00010898,1.447e-05,0.0,0 STARLINK-4125,1 53244U 22086C   24091.85994762  .00001447  00000-0  10898-3 0  9997,2 53244  53.2158 141.7702 0001350  81.6298 278.4847 15.08845661 93881,6917.863,95.437,540.662,538.794,0.0
53244.0,STARLINK-4125,PAYLOAD,2024-04-01 12:32:10,15.08832331,0.0001372,53.2154,138.7961,85.8381,274.2768,-0.00012164,-2.223e-05,0.0,0 STARLINK-4125,1 53244U 22086C   24092.52234568 -.00002223  00000-0 -12164-3 0  9996,2 53244  53.2154 138.7961 0001372  85.8381 274.2768 15.08832331 94486,6917.904,95.438,540.718,538.82,0.0
53244.0,STARLINK-4125,PAYLOAD,2024-04-01 20:29:06,15.08830973,0.0001421,53.2156,137.3096,87.2186,272.8969,-0.00012092,-2.211e-05,0.0,0 STARLINK-4125,1 53244U 22086C   24092.85354761 -.00002211  00000-0 -12092-3 0  9997,2 53244  53.2156 137.3096 0001421  87.2186 272.8969 15.08830973 94034,6917.908,95.438,540.756,538.79,0.0
53244.0,STARLINK-4125,PAYLOAD,2024-04-02 09:12:11,15.08835886,0.0001378,53.2145,134.9303,86.1451,273.9699,-8.1221e-05,-1.58e-05,0.0,0 STARLINK-4125,1 53244U 22086C   24093.38346426 -.00001580  00000-0 -81221-4 0  9994,2 53244  53.2145 134.9303 0001378  86.1451 273.9699 15.08835886 94119,6917.893,95.438,540.711,538.805,0.0
53244.0,STARLINK-4125,PAYLOAD,2024-04-03 12:13:45,15.08831683,0.0001367,53.2145,129.8744,90.3998,269.7151,0.00031116,4.667e-05,0.0,0 STARLINK-4125,1 53244U 22086C   24094.50955465  .00004667  00000-0  31116-3 0  9992,2 53244  53.2145 129.8744 0001367  90.3998 269.7151 15.08831683 94287,6917.906,95.438,540.716,538.825,0.0
53244.0,STARLINK-4125,PAYLOAD,2024-04-04 08:53:46,15.08839864,0.0001394,53.2149,126.0085,91.6441,268.471,0.0002507,3.704e-05,0.0,0 STARLINK-4125,1 53244U 22086C   24095.37067470  .00003704  00000-0  25070-3 0  9991,2 53244  53.2149 126.0085 0001394  91.6441 268.4710 15.08839864 94911,6917.881,95.438,540.71,538.781,0.0
53244.0,STARLINK-4125,PAYLOAD,2024-04-04 18:26:05,15.08841097,0.0001353,53.2147,124.2241,90.2519,269.8628,0.00020632,2.997e-05,0.0,0 STARLINK-4125,1 53244U 22086C   24095.76811454  .00002997  00000-0  20632-3 0  9995,2 53244  53.2147 124.2241 0001353  90.2519 269.8628 15.08841097 94474,6917.877,95.437,540.678,538.806,0.0
53244.0,STARLINK-4125,PAYLOAD,2024-04-05 02:23:01,15.08834069,0.0001571,53.2172,122.7385,93.8886,266.2285,7.948e-05,9.77e-06,0.0,0 STARLINK-4125,1 53244U 22086C   24096.09931932  .00000977  00000-0  79480-4 0  9998,2 53244  53.2172 122.7385 0001571  93.8886 266.2285 15.08834069 94529,6917.899,95.438,540.85,538.677,0.0
53244.0,STARLINK-4125,PAYLOAD,2024-04-05 08:44:33,15.08830955,0.0001533,53.2167,121.5488,93.4763,266.6404,3.4052e-06,-2.34e-06,0.0,0 STARLINK-4125,1 53244U 22086C   24096.36428137 -.00000234  00000-0  34052-5 0  9990,2 53244  53.2167 121.5488 0001533  93.4763 266.6404 15.08830955 95069,6917.908,95.438,540.834,538.713,0.0
53244.0,STARLINK-4125,PAYLOAD,2024-04-05 18:16:52,15.08833985,0.0001537,53.2177,119.7644,94.8839,265.2328,6.9466e-05,8.18e-06,0.0,0 STARLINK-4125,1 53244U 22086C   24096.76172350  .00000818  00000-0  69466-4 0  9990,2 53244  53.2177 119.7644 0001537  94.8839 265.2328 15.08833985 95129,6917.899,95.438,540.827,538.7,0.0
53244.0,STARLINK-4125,PAYLOAD,2024-04-06 08:35:20,15.08845418,0.000147,53.2168,117.088,95.7335,264.3825,0.00012576,1.714e-05,0.0,0 STARLINK-4125,1 53244U 22086C   24097.35787523  .00001714  00000-0  12576-3 0  9995,2 53244  53.2168 117.0880 0001470  95.7335 264.3825 15.08845418 94719,6917.864,95.437,540.746,538.712,0.0
53244.0,STARLINK-4125,PAYLOAD,2024-04-06 18:07:39,15.0884171,0.0001437,53.2167,115.3042,95.771,264.3446,9.341e-05,1.199e-05,0.0,0 STARLINK-4125,1 53244U 22086C   24097.75531811  .00001199  00000-0  93410-4 0  9990,2 53244  53.2167 115.3042 0001437  95.7710 264.3446 15.08841710 95271,6917.875,95.437,540.734,538.746,0.0
53244.0,STARLINK-4125,PAYLOAD,2024-04-07 08:26:08,15.08832314,0.0001419,53.2163,112.6268,88.2759,271.8396,0.00010473,1.379e-05,0.0,0 STARLINK-4125,1 53244U 22086C   24098.35148730  .00001379  00000-0  10473-3 0  9998,2 53244  53.2163 112.6268 0001419  88.2759 271.8396 15.08832314 94868,6917.904,95.438,540.751,538.787,0.0
53244.0,STARLINK-4125,PAYLOAD,2024-04-07 17:58:26,15.08840488,0.0001422,53.2162,110.8422,84.7865,275.3289,0.0001259,1.716e-05,0.0,0 STARLINK-4125,1 53244U 22086C   24098.74892292  .00001716  00000-0  12590-3 0  9997,2 53244  53.2162 110.8422 0001422  84.7865 275.3289 15.08840488 94920,6917.879,95.438,540.728,538.76,0.0
53244.0,STARLINK-4125,PAYLOAD,2024-04-08 09:52:17,15.08852165,0.0001472,53.2165,107.8691,83.3472,276.7688,0.00010851,1.44e-05,0.0,0 STARLINK-4125,1 53244U 22086C   24099.41131367  .00001440  00000-0  10851-3 0  9993,2 53244  53.2165 107.8691 0001472  83.3472 276.7688 15.08852165 95026,6917.843,95.437,540.727,538.69,0.0
53244.0,STARLINK-4125,PAYLOAD,2024-04-08 17:49:13,15.08846396,0.0001476,53.2167,106.3819,83.3718,276.7442,7.4784e-05,9.03e-06,0.0,0 STARLINK-4125,1 53244U 22086C   24099.74251694  .00000903  00000-0  74784-4 0  9994,2 53244  53.2167 106.3819 0001476  83.3718 276.7442 15.08846396 95073,6917.861,95.437,540.747,538.705,0.0
53244.0,STARLINK-4125,PAYLOAD,2024-04-09 00:10:46,15.08841113,0.000146,53.2164,105.1922,83.9159,276.1999,0.00014138,1.963e-05,0.0,0 STARLINK-4125,1 53244U 22086C   24100.00747849  .00001963  00000-0  14138-3 0  9991,2 53244  53.2164 105.1922 0001460  83.9159 276.1999 15.08841113 95613,6917.877,95.437,540.752,538.732,0.0
53244.0,STARLINK-4125,PAYLOAD,2024-04-09 04:56:55,15.08838238,0.0001472,53.2166,104.3001,84.3104,275.8056,0.00010965,1.457e-05,0.0,0 STARLINK-4125,1 53244U 22086C   24100.20620152  .00001457  00000-0  10965-3 0  9992,2 53244  53.2166 104.3001 0001472  84.3104 275.8056 15.08838238 95144,6917.886,95.438,540.769,538.732,0.0
53244.0,STARLINK-4125,PAYLOAD,2024-04-09 06:32:18,15.08839651,0.0001379,53.216,104.0019,88.3836,271.7314,0.00013143,1.804e-05,0.0,0 STARLINK-4125,1 53244U 22086C   24100.27244008  .00001804  00000-0  13143-3 0  9998,2 53244  53.2160 104.0019 0001379  88.3836 271.7314 15.08839651 95654,6917.881,95.438,540.7,538.792,0.0
53244.0,STARLINK-4125,PAYLOAD,2024-04-09 17:40:00,15.08844138,0.0001342,53.2161,101.9202,88.8143,271.3003,9.008e-05,1.146e-05,0.0,0 STARLINK-4125,1 53244U 22086C   24100.73611782  .00001146  00000-0  90080-4 0  9991,2 53244  53.2161 101.9202 0001342  88.8143 271.3003 15.08844138 95726,6917.868,95.437,540.661,538.804,0.0
53244.0,STARLINK-4125,PAYLOAD,2024-04-10 06:23:05,15.08845825,0.0001346,53.216,99.5408,90.7367,269.3779,5.2047e-05,5.41e-06,0.0,0 STARLINK-4125,1 53244U 22086C   24101.26603570  .00000541  00000-0  52047-4 0  9995,2 53244  53.2160  99.5408 0001346  90.7367 269.3779 15.08845825 95304,6917.863,95.437,540.659,538.796,0.0
53244.0,STARLINK-4125,PAYLOAD,2024-04-11 04:38:30,15.08834688,0.0001355,53.2161,95.3772,95.0137,265.101,1.6711e-05,-2.2e-07,0.0,0 STARLINK-4125,1 53244U 22086C   24102.19340378 -.00000022  00000-0  16711-4 0  9995,2 53244  53.2161  95.3772 0001355  95.0137 265.1010 15.08834688 95448,6917.897,95.438,540.699,538.824,0.0
53244.0,STARLINK-4125,PAYLOAD,2024-04-11 09:24:39,15.08834896,0.0001399,53.2165,94.4854,96.0967,264.0185,1.7145e-05,-1.5e-07,0.0,0 STARLINK-4125,1 53244U 22086C   24102.39212392 -.00000015  00000-0  17145-4 0  9995,2 53244  53.2165  94.4854 0001399  96.0967 264.0185 15.08834896 95973,6917.896,95.438,540.729,538.793,0.0
53244.0,STARLINK-4125,PAYLOAD,2024-04-12 04:29:16,15.08840832,0.0001343,53.2164,90.9175,94.6532,265.4614,6.1765e-05,6.95e-06,0.0,0 STARLINK-4125,1 53244U 22086C   24103.18700010  .00000695  00000-0  61765-4 0  9992,2 53244  53.2164  90.9175 0001343  94.6532 265.4614 15.08840832 95597,6917.878,95.438,540.672,538.814,0.0
